FORMOSAT 7-3            
1 44343U 19036E   26068.82630502  .00006445  00000+0  37650-3 0  9997
2 44343  23.9981 141.9797 0001061 150.4425 209.6139 15.08933962368215
STARLINK-4181           
1 52882U 22062BE  26068.14101916 -.00003666  00000+0 -21239-3 0  9994
2 52882  53.2185  16.1555 0001412  94.8856 265.2298 15.08833838205998
